CCSDS_OMM_VERS,COMMENT,CREATION_DATE,ORIGINATOR,OBJECT_NAME,OBJECT_ID,CENTER_NAME,REF_FRAME,TIME_SYSTEM,MEAN_ELEMENT_THEORY,EPOCH,MEAN_MOTION,ECCENTRICITY,INCLINATION,RA_OF_ASC_NODE,ARG_OF_PERICENTER,MEAN_ANOMALY,EPHEMERIS_TYPE,CLASSIFICATION_TYPE,NORAD_CAT_ID,ELEMENT_SET_NO,REV_AT_EPOCH,BSTAR,MEAN_MOTION_DOT,MEAN_MOTION_DDOT,SEMIMAJOR_AXIS,PERIOD,APOAPSIS,PERIAPSIS,OBJECT_TYPE,RCS_SIZE,COUNTRY_CODE,LAUNCH_DATE,SITE,DECAY_DATE,FILE,GP_ID,TLE_LINE0,TLE_LINE1,TLE_LINE2
"2.0","GENERATED VIA SPACE-TRACK.ORG API","2020-03-15T01:31:35","18 SPCS","TBA - TO BE ASSIGNED","2014-028C","EARTH","TEME","UTC","SGP4","2020-03-14T19:33:35.955936","12.42885336","0.00210410","82.4432","100.3628","15.0847","345.0860","0","U","39763","999","26368","0.00035481000000","0.00000059","0.0000000000000","7872.532","115.859","1510.962","1477.832","TBA","","","","","","2718721","150593432","0 TBA - TO BE ASSIGNED","1 39763U 14028C   20074.81499949 +.00000059 +00000-0 +35481-3 0  9997","2 39763 082.4432 100.3628 0021041 015.0847 345.0860 12.42885336263689"
"2.0","GENERATED VIA SPACE-TRACK.ORG API","2020-03-14T22:26:14","18 SPCS","COSMOS 1732","1986-015A","EARTH","TEME","UTC","SGP4","2020-03-14T13:15:21.699936","12.40984126","0.00255970","73.6093","128.3157","98.2874","262.1073","0","U","16593","999","54451","0.00000625290000","-0.00000016","0.0000000000000","7880.571","116.036","1522.607","1482.264","PAYLOAD","LARGE","CIS","1986-02-11","PKMTR","","2718627","150576202","0 COSMOS 1732","1 16593U 86015A   20074.55233449 -.00000016  00000-0  62529-5 0  9999","2 16593  73.6093 128.3157 0025597  98.2874 262.1073 12.40984126544514"
"2.0","GENERATED VIA SPACE-TRACK.ORG API","2020-03-14T06:46:14","18 SPCS","COSMOS 2498","2014-028C","EARTH","TEME","UTC","SGP4","2020-03-14T04:06:16.448544","12.42885194","0.00210810","82.4433","100.7665","16.3805","343.7949","0","U","39763","999","26360","0.00029263000000","0.00000050","0.0000000000000","7872.533","115.859","1510.994","1477.802","PAYLOAD","LARGE","CIS","2014-05-23","PKMTR","","2718372","150550659","0 COSMOS 2498","1 39763U 14028C   20074.17102371  .00000050  00000-0  29263-3 0  9998","2 39763  82.4433 100.7665 0021081  16.3805 343.7949 12.42885194263604"
"2.0","GENERATED VIA SPACE-TRACK.ORG API","2020-03-14T17:02:04","18 SPCS","COSMOS 1732","1986-015A","EARTH","TEME","UTC","SGP4","2020-03-14T03:34:59.457792","12.40984132","0.00256070","73.6094","128.8558","98.8787","261.5157","0","U","16593","999","54421","0.00002765800000","-0.00000013","0.0000000000000","7880.571","116.036","1522.615","1482.256","PAYLOAD","LARGE","CIS","1986-02-11","PKMTR","","2718611","150560189","0 COSMOS 1732","1 16593U 86015A   20074.14929928 -.00000013 +00000-0 +27658-4 0  9998","2 16593 073.6094 128.8558 0025607 098.8787 261.5157 12.40984132544216"
"2.0","GENERATED VIA SPACE-TRACK.ORG API","2020-03-14T01:16:37","18 SPCS","COSMOS 2498","2014-028C","EARTH","TEME","UTC","SGP4","2020-03-13T18:26:41.750592","12.42885221","0.00211100","82.4434","101.0188","17.2088","342.9700","0","U","39763","999","26355","0.00033226000000","0.00000056","0.0000000000000","7872.533","115.859","1511.016","1477.779","PAYLOAD","LARGE","CIS","2014-05-23","PKMTR","","2718300","150544454","0 COSMOS 2498","1 39763U 14028C   20073.76853878 +.00000056 +00000-0 +33226-3 0  9997","2 39763 082.4434 101.0188 0021110 017.2088 342.9700 12.42885221263556"
"2.0","GENERATED VIA SPACE-TRACK.ORG API","2020-03-14T01:16:37","18 SPCS","COSMOS 1732","1986-015A","EARTH","TEME","UTC","SGP4","2020-03-13T14:02:28.314816","12.40984116","0.00256070","73.6095","129.6119","99.7114","260.6823","0","U","16593","999","54414","0.00006481500000","-0.00000008","0.0000000000000","7880.571","116.036","1522.615","1482.256","PAYLOAD","LARGE","CIS","1986-02-11","PKMTR","","2718300","150533356","0 COSMOS 1732","1 16593U 86015A   20073.58504994 -.00000008 +00000-0 +64815-4 0  9997","2 16593 073.6095 129.6119 0025607 099.7114 260.6823 12.40984116544147"
"2.0","GENERATED VIA SPACE-TRACK.ORG API","2020-03-11T04:46:58","18 SPCS","COSMOS 2498","2014-028C","EARTH","TEME","UTC","SGP4","2020-03-10T17:01:54.135840","12.42884415","0.00211710","82.4440","102.9366","24.3481","335.8594","0","U","39763","999","26317","-0.00006528300000","0.00000001","0.0000000000000","7872.536","115.859","1511.068","1477.734","PAYLOAD","LARGE","CIS","2014-05-23","PKMTR","","2716603","150388380","0 COSMOS 2498","1 39763U 14028C   20070.70965435 +.00000001 +00000-0 -65283-4 0  9991","2 39763 082.4440 102.9366 0021171 024.3481 335.8594 12.42884415263178"
"2.0","GENERATED VIA SPACE-TRACK.ORG API","2020-03-11T04:46:58","18 SPCS","COSMOS 1732","1986-015A","EARTH","TEME","UTC","SGP4","2020-03-10T14:27:43.671456","12.40984057","0.00256370","73.6099","133.6086","104.1113","256.2782","0","U","16593","999","54377","0.00022452000000","0.00000013","0.0000000000000","7880.571","116.036","1522.639","1482.232","PAYLOAD","LARGE","CIS","1986-02-11","PKMTR","","2716603","150377281","0 COSMOS 1732","1 16593U 86015A   20070.60258879 +.00000013 +00000-0 +22452-3 0  9990","2 16593 073.6099 133.6086 0025637 104.1113 256.2782 12.40984057543779"
"2.0","GENERATED VIA SPACE-TRACK.ORG API","2020-03-10T14:56:15","18 SPCS","COSMOS 2498","2014-028C","EARTH","TEME","UTC","SGP4","2020-03-10T11:14:09.303072","12.42884420","0.00211710","82.4440","103.0878","24.8738","335.3358","0","U","39763","999","26314","-0.00006528300000","0.00000001","0.0000000000000","7872.536","115.859","1511.068","1477.734","PAYLOAD","LARGE","CIS","2014-05-23","PKMTR","","2716296","150346490","0 COSMOS 2498","1 39763U 14028C   20070.46816323  .00000001  00000-0 -65283-4 0  9995","2 39763  82.4440 103.0878 0021171  24.8738 335.3358 12.42884420263144"
"2.0","GENERATED VIA SPACE-TRACK.ORG API","2020-03-10T14:26:14","18 SPCS","COSMOS 1732","1986-015A","EARTH","TEME","UTC","SGP4","2020-03-10T10:35:34.768032","12.40984050","0.00256400","73.6099","133.8246","104.3554","256.0339","0","U","16593","999","54400","0.00021657000000","0.00000012","0.0000000000000","7880.571","116.036","1522.642","1482.230","PAYLOAD","LARGE","CIS","1986-02-11","PKMTR","","2716249","150345346","0 COSMOS 1732","1 16593U 86015A   20070.44137463  .00000012  00000-0  21657-3 0  9992","2 16593  73.6099 133.8246 0025640 104.3554 256.0339 12.40984050544000"
"2.0","GENERATED VIA SPACE-TRACK.ORG API","2020-03-10T18:50:56","18 SPCS","COSMOS 2498","2014-028C","EARTH","TEME","UTC","SGP4","2020-03-10T03:30:29.526912","12.42884425","0.00211710","82.4440","103.2895","25.5747","334.6375","0","U","39763","999","26310","-0.00006528300000","0.00000001","0.0000000000000","7872.536","115.859","1511.068","1477.734","PAYLOAD","LARGE","CIS","2014-05-23","PKMTR","","2716422","150364867","0 COSMOS 2498","1 39763U 14028C   20070.14617508 +.00000001 +00000-0 -65283-4 0  9994","2 39763 082.4440 103.2895 0021171 025.5747 334.6375 12.42884425263105"
"2.0","GENERATED VIA SPACE-TRACK.ORG API","2020-03-10T18:50:56","18 SPCS","COSMOS 1732","1986-015A","EARTH","TEME","UTC","SGP4","2020-03-10T02:51:16.964640","12.40984042","0.00256440","73.6099","134.2567","104.8271","255.5615","0","U","16593","999","54371","0.00020274000000","0.00000010","0.0000000000000","7880.571","116.036","1522.645","1482.227","PAYLOAD","LARGE","CIS","1986-02-11","PKMTR","","2716422","150353755","0 COSMOS 1732","1 16593U 86015A   20070.11894635 +.00000010 +00000-0 +20274-3 0  9999","2 16593 073.6099 134.2567 0025644 104.8271 255.5615 12.40984042543715"
"2.0","GENERATED VIA SPACE-TRACK.ORG API","2020-03-10T03:30:53","18 SPCS","COSMOS 1732","1986-015A","EARTH","TEME","UTC","SGP4","2020-03-09T21:03:03.609504","12.40984030","0.00256450","73.6100","134.5807","105.1797","255.2086","0","U","16593","999","54368","0.00019958000000","0.00000010","0.0000000000000","7880.571","116.036","1522.646","1482.226","PAYLOAD","LARGE","CIS","1986-02-11","PKMTR","","2716026","150324366","0 COSMOS 1732","1 16593U 86015A   20069.87712511 +.00000010 +00000-0 +19958-3 0  9999","2 16593 073.6100 134.5807 0025645 105.1797 255.2086 12.40984030543688"
"2.0","GENERATED VIA SPACE-TRACK.ORG API","2020-03-10T03:30:53","18 SPCS","COSMOS 2498","2014-028C","EARTH","TEME","UTC","SGP4","2020-03-09T17:50:54.806496","12.42884433","0.00211710","82.4440","103.5416","26.4509","333.7646","0","U","39763","999","26305","-0.00006528300000","0.00000001","0.0000000000000","7872.536","115.859","1511.068","1477.734","PAYLOAD","LARGE","CIS","2014-05-23","PKMTR","","2716026","150335465","0 COSMOS 2498","1 39763U 14028C   20069.74368989 +.00000001 +00000-0 -65283-4 0  9994","2 39763 082.4440 103.5416 0021171 026.4509 333.7646 12.42884433263057"
"2.0","GENERATED VIA SPACE-TRACK.ORG API","2020-03-09T19:32:24","18 SPCS","COSMOS 2498","2014-028C","EARTH","TEME","UTC","SGP4","2020-03-09T10:07:15.030336","12.42884439","0.00211710","82.4440","103.7433","27.1519","333.0663","0","U","39763","999","26301","-0.00006528300000","0.00000001","0.0000000000000","7872.536","115.859","1511.068","1477.734","PAYLOAD","LARGE","CIS","2014-05-23","PKMTR","","2715817","150311934","0 COSMOS 2498","1 39763U 14028C   20069.42170174 +.00000001 +00000-0 -65283-4 0  9996","2 39763 082.4440 103.7433 0021171 027.1519 333.0663 12.42884439263011"
"2.0","GENERATED VIA SPACE-TRACK.ORG API","2020-03-09T19:32:24","18 SPCS","COSMOS 1732","1986-015A","EARTH","TEME","UTC","SGP4","2020-03-09T07:30:32.448384","12.40984014","0.00256550","73.6100","135.3369","106.0180","254.3692","0","U","16593","999","54361","0.00018070000000","0.00000007","0.0000000000000","7880.571","116.036","1522.654","1482.218","PAYLOAD","LARGE","CIS","1986-02-11","PKMTR","","2715817","150300835","0 COSMOS 1732","1 16593U 86015A   20069.31287556 +.00000007 +00000-0 +18070-3 0  9994","2 16593 073.6100 135.3369 0025655 106.0180 254.3692 12.40984014543615"
